{
  "type": "FeatureCollection",
  "features": [
    {
      "type": "Feature",
      "properties": {
        "norad_id": 34492,
        "name": "IRIDIUM 33 DEB",
        "group": "iridium-33-debris",
        "lat": -74.72744309760573,
        "lon": 171.04123472598317,
        "alt_km": 680.1092189594192,
        "timestamp": "2025-12-04T10:51:50.490507+00:00",
        "meta_object_name": "IRIDIUM 33 DEB",
        "meta_object_id": "1997-051GH",
        "meta_epoch": "2025-12-03T10:48:32.344704",
        "meta_mean_motion": 14.25280236,
        "meta_eccentricity": 0.0190283,
        "meta_inclination": 86.4711,
        "meta_ra_of_asc_node": 338.3846,
        "meta_arg_of_pericenter": 268.3385,
        "meta_mean_anomaly": 247.4972,
        "meta_ephemeris_type": 0,
        "meta_classification_type": "U",
        "meta_norad_cat_id": 34492,
        "meta_element_set_no": 999,
        "meta_rev_at_epoch": 84926,
        "meta_bstar": 0.008581153,
        "meta_mean_motion_dot": 0.00024475,
        "meta_mean_motion_ddot": 0,
        "tle_line1": "1 34492U 97051GH  25337.45037436  .00024475  00000+0  85812-2 0  9993",
        "tle_line2": "2 34492  86.4711 338.3846 0190283 268.3385 247.4972 14.25280236849261"
      },
      "geometry": {
        "type": "Point",
        "coordinates": [
          171.04123472598317,
          -74.72744309760573
        ]
      }
    },
    {
      "type": "Feature",
      "properties": {
        "norad_id": 34497,
        "name": "IRIDIUM 33 DEB",
        "group": "iridium-33-debris",
        "lat": 78.053995123617,
        "lon": 73.8582345259331,
        "alt_km": 775.1768088095378,
        "timestamp": "2025-12-04T10:51:50.490517+00:00",
        "meta_object_name": "IRIDIUM 33 DEB",
        "meta_object_id": "1997-051GN",
        "meta_epoch": "2025-12-03T06:10:51.201984",
        "meta_mean_motion": 14.27408211,
        "meta_eccentricity": 0.0079856,
        "meta_inclination": 86.2784,
        "meta_ra_of_asc_node": 56.4516,
        "meta_arg_of_pericenter": 10.3771,
        "meta_mean_anomaly": 49.8757,
        "meta_ephemeris_type": 0,
        "meta_classification_type": "U",
        "meta_norad_cat_id": 34497,
        "meta_element_set_no": 999,
        "meta_rev_at_epoch": 86748,
        "meta_bstar": 0.00083815,
        "meta_mean_motion_dot": 2.144e-05,
        "meta_mean_motion_ddot": 0,
        "tle_line1": "1 34497U 97051GN  25337.25753706  .00002144  00000+0  83815-3 0  9992",
        "tle_line2": "2 34497  86.2784  56.4516 0079856  10.3771  49.8757 14.27408211867488"
      },
      "geometry": {
        "type": "Point",
        "coordinates": [
          73.8582345259331,
          78.053995123617
        ]
      }
    },
    {
      "type": "Feature",
      "properties": {
        "norad_id": 34508,
        "name": "IRIDIUM 33 DEB",
        "group": "iridium-33-debris",
        "lat": -86.27027468428102,
        "lon": 29.287901049565917,
        "alt_km": 756.0994458865416,
        "timestamp": "2025-12-04T10:51:50.490527+00:00",
        "meta_object_name": "IRIDIUM 33 DEB",
        "meta_object_id": "1997-051GZ",
        "meta_epoch": "2025-12-03T18:34:58.618848",
        "meta_mean_motion": 14.38282153,
        "meta_eccentricity": 0.0065497,
        "meta_inclination": 86.3699,
        "meta_ra_of_asc_node": 106.4429,
        "meta_arg_of_pericenter": 202.0722,
        "meta_mean_anomaly": 157.7654,
        "meta_ephemeris_type": 0,
        "meta_classification_type": "U",
        "meta_norad_cat_id": 34508,
        "meta_element_set_no": 999,
        "meta_rev_at_epoch": 87180,
        "meta_bstar": 0.002633055,
        "meta_mean_motion_dot": 8.231e-05,
        "meta_mean_motion_ddot": 0,
        "tle_line1": "1 34508U 97051GZ  25337.77428957  .00008231  00000+0  26331-2 0  9991",
        "tle_line2": "2 34508  86.3699 106.4429 0065497 202.0722 157.7654 14.38282153871801"
      },
      "geometry": {
        "type": "Point",
        "coordinates": [
          29.287901049565917,
          -86.27027468428102
        ]
      }
    },
    {
      "type": "Feature",
      "properties": {
        "norad_id": 34521,
        "name": "IRIDIUM 33 DEB",
        "group": "iridium-33-debris",
        "lat": 64.64947473210592,
        "lon": 41.87297096454538,
        "alt_km": 677.0784926161541,
        "timestamp": "2025-12-04T10:51:50.490537+00:00",
        "meta_object_name": "IRIDIUM 33 DEB",
        "meta_object_id": "1997-051HN",
        "meta_epoch": "2025-12-04T04:00:12.561984",
        "meta_mean_motion": 14.63244137,
        "meta_eccentricity": 0.000111,
        "meta_inclination": 86.381,
        "meta_ra_of_asc_node": 34.3219,
        "meta_arg_of_pericenter": 286.9705,
        "meta_mean_anomaly": 73.1385,
        "meta_ephemeris_type": 0,
        "meta_classification_type": "U",
        "meta_norad_cat_id": 34521,
        "meta_element_set_no": 999,
        "meta_rev_at_epoch": 88347,
        "meta_bstar": 0.002099,
        "meta_mean_motion_dot": 0.00010842,
        "meta_mean_motion_ddot": 0,
        "tle_line1": "1 34521U 97051HN  25338.16681206  .00010842  00000+0  20990-2 0  9994",
        "tle_line2": "2 34521  86.3810  34.3219 0001110 286.9705  73.1385 14.63244137883477"
      },
      "geometry": {
        "type": "Point",
        "coordinates": [
          41.87297096454538,
          64.64947473210592
        ]
      }
    },
    {
      "type": "Feature",
      "properties": {
        "norad_id": 34525,
        "name": "IRIDIUM 33 DEB",
        "group": "iridium-33-debris",
        "lat": 47.52787681058539,
        "lon": -133.59176125390957,
        "alt_km": 740.5567281733966,
        "timestamp": "2025-12-04T10:51:50.490548+00:00",
        "meta_object_name": "IRIDIUM 33 DEB",
        "meta_object_id": "1997-051HS",
        "meta_epoch": "2025-12-03T12:55:13.156608",
        "meta_mean_motion": 14.42867525,
        "meta_eccentricity": 0.00064393,
        "meta_inclination": 86.3737,
        "meta_ra_of_asc_node": 50.7706,
        "meta_arg_of_pericenter": 116.2069,
        "meta_mean_anomaly": 309.7811,
        "meta_ephemeris_type": 0,
        "meta_classification_type": "U",
        "meta_norad_cat_id": 34525,
        "meta_element_set_no": 999,
        "meta_rev_at_epoch": 87955,
        "meta_bstar": 0.00057232393,
        "meta_mean_motion_dot": 1.93e-05,
        "meta_mean_motion_ddot": 0,
        "tle_line1": "1 34525U 97051HS  25337.53834672  .00001930  00000+0  57232-3 0  9993",
        "tle_line2": "2 34525  86.3737  50.7706 0006439 116.2069 309.7811 14.42867525879554"
      },
      "geometry": {
        "type": "Point",
        "coordinates": [
          -133.59176125390957,
          47.52787681058539
        ]
      }
    },
    {
      "type": "Feature",
      "properties": {
        "norad_id": 34529,
        "name": "IRIDIUM 33 DEB",
        "group": "iridium-33-debris",
        "lat": 83.89209458604945,
        "lon": -177.50360849344477,
        "alt_km": 750.0703764632071,
        "timestamp": "2025-12-04T10:51:50.490558+00:00",
        "meta_object_name": "IRIDIUM 33 DEB",
        "meta_object_id": "1997-051HW",
        "meta_epoch": "2025-12-04T03:45:24.302592",
        "meta_mean_motion": 14.40605404,
        "meta_eccentricity": 0.0003766,
        "meta_inclination": 86.3648,
        "meta_ra_of_asc_node": 39.0703,
        "meta_arg_of_pericenter": 207.724,
        "meta_mean_anomaly": 152.3759,
        "meta_ephemeris_type": 0,
        "meta_classification_type": "U",
        "meta_norad_cat_id": 34529,
        "meta_element_set_no": 999,
        "meta_rev_at_epoch": 88018,
        "meta_bstar": 0.00023195,
        "meta_mean_motion_dot": 7.59e-06,
        "meta_mean_motion_ddot": 0,
        "tle_line1": "1 34529U 97051HW  25338.15653128  .00000759  00000+0  23195-3 0  9990",
        "tle_line2": "2 34529  86.3648  39.0703 0003766 207.7240 152.3759 14.40605404880181"
      },
      "geometry": {
        "type": "Point",
        "coordinates": [
          -177.50360849344477,
          83.89209458604945
        ]
      }
    },
    {
      "type": "Feature",
      "properties": {
        "norad_id": 34538,
        "name": "IRIDIUM 33 DEB",
        "group": "iridium-33-debris",
        "lat": -52.03501764268592,
        "lon": -166.02868698208695,
        "alt_km": 770.4663383619427,
        "timestamp": "2025-12-04T10:51:50.490569+00:00",
        "meta_object_name": "IRIDIUM 33 DEB",
        "meta_object_id": "1997-051JF",
        "meta_epoch": "2025-12-03T20:43:39.389376",
        "meta_mean_motion": 14.42564801,
        "meta_eccentricity": 0.0033922,
        "meta_inclination": 86.2783,
        "meta_ra_of_asc_node": 9.4441,
        "meta_arg_of_pericenter": 357.8876,
        "meta_mean_anomaly": 57.5805,
        "meta_ephemeris_type": 0,
        "meta_classification_type": "U",
        "meta_norad_cat_id": 34538,
        "meta_element_set_no": 999,
        "meta_rev_at_epoch": 87628,
        "meta_bstar": 0.0017801,
        "meta_mean_motion_dot": 5.966e-05,
        "meta_mean_motion_ddot": 0,
        "tle_line1": "1 34538U 97051JF  25337.86365034  .00005966  00000+0  17801-2 0  9994",
        "tle_line2": "2 34538  86.2783   9.4441 0033922 357.8876  57.5805 14.42564801876280"
      },
      "geometry": {
        "type": "Point",
        "coordinates": [
          -166.02868698208695,
          -52.03501764268592
        ]
      }
    }
  ]
}